MICROSAT-R DEB          
1 44383U 19006DE  21265.48736934  .00034058  10198-5  45670-3 0  9997
2 44383  96.1742 273.4086 0633428 125.2000 241.0218 14.50379804121473
